[{"OBJECT_NAME":"YAOGAN-36 04B","OBJECT_ID":"2022-171C","EPOCH":"2026-03-09T12:26:55.012992","MEAN_MOTION":15.22823705,"ECCENTRICITY":0.00071917,"INCLINATION":35.0028,"RA_OF_ASC_NODE":101.7264,"ARG_OF_PERICENTER":352.2921,"MEAN_ANOMALY":7.7682,"EPHEMERIS_TYPE":0,"CLASSIFICATION_TYPE":"U","NORAD_CAT_ID":54748,"ELEMENT_SET_NO":999,"REV_AT_EPOCH":18018,"BSTAR":0.00057723436,"MEAN_MOTION_DOT":0.0001383,"MEAN_MOTION_DDOT":0},{"OBJECT_NAME":"YAOGAN-43 01E","OBJECT_ID":"2024-148E","EPOCH":"2026-03-09T10:46:29.401824","MEAN_MOTION":15.23061231,"ECCENTRICITY":0.00047279,"INCLINATION":34.9939,"RA_OF_ASC_NODE":67.5277,"ARG_OF_PERICENTER":25.6868,"MEAN_ANOMALY":334.4081,"EPHEMERIS_TYPE":0,"CLASSIFICATION_TYPE":"U","NORAD_CAT_ID":60462,"ELEMENT_SET_NO":999,"REV_AT_EPOCH":8694,"BSTAR":0.00071899242,"MEAN_MOTION_DOT":0.0001736,"MEAN_MOTION_DDOT":0}]
