YAOGAN-36 04B           
1 54748U 22171C   26068.51869228  .00013830  00000+0  57723-3 0  9995
2 54748  35.0028 101.7264 0007191 352.2921   7.7682 15.22823705180184
YAOGAN-43 01E           
1 60462U 24148E   26068.44895141  .00017360  00000+0  71899-3 0  9998
2 60462  34.9939  67.5277 0004727  25.6868 334.4081 15.23061231 86940
